{
    "links": {
        "self": "http://www.neowsapp.com/rest/v1/neo/3789394?api_key=iIulBulltgU6a56xZRHN4H3l9WmuAYTsLGpBGhQ2"
    },
    "id": "3789394",
    "neo_reference_id": "3789394",
    "name": "(2017 VA14)",
    "designation": "2017 VA14",
    "nasa_jpl_url": "http://ssd.jpl.nasa.gov/sbdb.cgi?sstr=3789394",
    "absolute_magnitude_h": 25.6,
    "estimated_diameter": {
        "kilometers": {
            "estimated_diameter_min": 0.0201629919,
            "estimated_diameter_max": 0.0450858206
        },
        "meters": {
            "estimated_diameter_min": 20.1629919443,
            "estimated_diameter_max": 45.0858206172
        },
        "miles": {
            "estimated_diameter_min": 0.0125286985,
            "estimated_diameter_max": 0.0280150214
        },
        "feet": {
            "estimated_diameter_min": 66.1515504905,
            "estimated_diameter_max": 147.9193637137
        }
    },
    "is_potentially_hazardous_asteroid": false,
    "close_approach_data": [
        {
            "close_approach_date": "2017-11-14",
            "close_approach_date_full": "2017-Nov-14 00:44",
            "epoch_date_close_approach": 1510620240000,
            "relative_velocity": {
                "kilometers_per_second": "7.5282206967",
                "kilometers_per_hour": "27101.5945080209",
                "miles_per_hour": "16839.8768763866"
            },
            "miss_distance": {
                "astronomical": "0.0462783539",
                "lunar": "18.0022796671",
                "kilometers": "6923143.170546193",
                "miles": "4301841.6871277434"
            },
            "orbiting_body": "Earth"
        }
    ],
    "orbital_data": {
        "orbit_id": "2",
        "orbit_determination_date": "2017-11-19 06:20:50",
        "first_observation_date": "2017-11-14",
        "last_observation_date": "2017-11-19",
        "data_arc_in_days": 5,
        "observations_used": 39,
        "orbit_uncertainty": "8",
        "minimum_orbit_intersection": ".0436814",
        "jupiter_tisserand_invariant": "3.634",
        "epoch_osculation": "2458072.5",
        "eccentricity": ".4927694409597349",
        "semi_major_axis": "2.034181019784762",
        "inclination": "8.426659079127051",
        "ascending_node_longitude": "233.7101364938931",
        "orbital_period": "1059.699729539045",
        "perihelion_distance": "1.031798775854521",
        "perihelion_argument": "184.3029441384159",
        "aphelion_distance": "3.036563263715002",
        "perihelion_time": "2458076.461000307829",
        "mean_anomaly": "358.6543734313883",
        "mean_motion": ".3397188750407581",
        "equinox": "J2000",
        "orbit_class": {
            "orbit_class_type": "AMO",
            "orbit_class_description": "Near-Earth asteroid orbits similar to that of 1221 Amor",
            "orbit_class_range": "1.017 AU < q (perihelion) < 1.3 AU"
        }
    },
    "is_sentry_object": false
}